HST                     
1 20580U 90037B   26068.15977042  .00009063  00000+0  30023-3 0  9999
2 20580  28.4717  43.6133 0001837 120.9992 239.0785 15.29473555773239
STARLINK-32596          
1 62316U 24239R   26068.64059437  .00031017  00000+0  10551-2 0  9993
2 62316  53.1574 194.3407 0001175  72.0115 288.1014 15.30197640 69378
